NORAD_CAT_ID,OBJECT_NAME,OBJECT_TYPE,EPOCH,MEAN_MOTION,ECCENTRICITY,INCLINATION,RA_OF_ASC_NODE,ARG_OF_PERICENTER,MEAN_ANOMALY,BSTAR,MEAN_MOTION_DOT,MEAN_MOTION_DDOT,TLE_LINE0,TLE_LINE1,TLE_LINE2,SEMIMAJOR_AXIS,PERIOD,APOGEE,PERIGEE,DECAYED
55937.0,STARLINK-5913,PAYLOAD,2023-11-03 04:31:08,14.98328124,0.0002437,70.0006,286.5657,257.4581,102.6305,-2.7484e-05,-4.21e-06,0.0,0 STARLINK-5913,1 55937U 23037Z   23307.18829212 -.00000421  00000-0 -27484-4 0  9990,2 55937  70.0006 286.5657 0002437 257.4581 102.6305 14.98328124 35873,6950.199,96.107,573.757,570.37,0.0
55937.0,STARLINK-5913,PAYLOAD,2023-11-03 09:19:32,14.98330049,0.0002335,70.0,286.0594,266.639,93.4502,1.4789e-05,8.4e-07,0.0,0 STARLINK-5913,1 55937U 23037Z   23307.38857026  .00000084  00000-0  14789-4 0  9993,2 55937  70.0000 286.0594 0002335 266.6390  93.4502 14.98330049 35560,6950.193,96.107,573.681,570.435,0.0
55937.0,STARLINK-5913,PAYLOAD,2023-11-03 15:44:05,14.98328567,0.000207,70.0009,285.3853,280.7339,79.3587,-6.681e-06,-1.73e-06,0.0,0 STARLINK-5913,1 55937U 23037Z   23307.65561356 -.00000173  00000-0 -66810-5 0  9995,2 55937  70.0009 285.3853 0002070 280.7339  79.3587 14.98328567 35608,6950.197,96.107,573.501,570.624,0.0
55937.0,STARLINK-5913,PAYLOAD,2023-11-04 04:33:06,14.98370166,0.0002688,69.9994,284.0381,260.1798,99.9058,0.00046535,5.469e-05,0.0,0 STARLINK-5913,1 55937U 23037Z   23308.18965344  .00005469  00000-0  46535-3 0  9990,2 55937  69.9994 284.0381 0002688 260.1798  99.9058 14.98370166 36026,6950.069,96.104,573.802,570.066,0.0
55937.0,STARLINK-5913,PAYLOAD,2023-11-04 07:45:25,14.98322344,0.0002638,69.9994,283.7014,264.6783,95.4075,0.00015197,1.72e-05,0.0,0 STARLINK-5913,1 55937U 23037Z   23308.32321015  .00001720  00000-0  15197-3 0  9993,2 55937  69.9994 283.7014 0002638 264.6783  95.4075 14.98322344 36040,6950.217,96.107,573.915,570.248,0.0
55937.0,STARLINK-5913,PAYLOAD,2023-11-04 15:46:05,14.98354526,0.000281,69.9998,282.8598,274.3506,85.7332,-0.00049225,-5.965e-05,0.0,0 STARLINK-5913,1 55937U 23037Z   23308.65700477 -.00005965  00000-0 -49225-3 0  9998,2 55937  69.9998 282.8598 0002810 274.3506  85.7332 14.98354526 36094,6950.117,96.105,573.935,570.029,0.0
55937.0,STARLINK-5913,PAYLOAD,2023-11-05 04:35:03,14.98409094,0.0002779,69.9998,281.5138,254.6473,105.4379,0.00090149,0.00010702,0.0,0 STARLINK-5913,1 55937U 23037Z   23309.19101786  .00010702  00000-0  90149-3 0  9990,2 55937  69.9998 281.5138 0002779 254.6473 105.4379 14.98409094 36179,6949.948,96.102,573.745,569.882,0.0
55937.0,STARLINK-5913,PAYLOAD,2023-11-05 07:47:21,14.9838827,0.0003062,69.9987,281.177,267.5861,92.4948,0.00064983,7.681e-05,0.0,0 STARLINK-5913,1 55937U 23037Z   23309.32455603  .00007681  00000-0  64983-3 0  9994,2 55937  69.9987 281.1770 0003062 267.5861  92.4948 14.98388270 36196,6950.013,96.103,574.006,569.75,0.0
55937.0,STARLINK-5913,PAYLOAD,2023-11-05 15:48:05,14.98335698,0.0002919,69.9987,280.3351,270.0902,89.9923,1.0498e-06,-8e-07,0.0,0 STARLINK-5913,1 55937U 23037Z   23309.65840247 -.00000080  00000-0  10498-5 0  9993,2 55937  69.9987 280.3351 0002919 270.0902  89.9923 14.98335698 36243,6950.175,96.107,574.069,570.012,0.0
55937.0,STARLINK-5913,PAYLOAD,2023-11-06 04:37:09,14.98343936,0.0002744,69.9986,278.9883,268.8896,91.1948,0.00019645,2.253e-05,0.0,0 STARLINK-5913,1 55937U 23037Z   23310.19247066  .00002253  00000-0  19645-3 0  9998,2 55937  69.9986 278.9883 0002744 268.8896  91.1948 14.98343936 36323,6950.15,96.106,573.922,570.108,0.0
55937.0,STARLINK-5913,PAYLOAD,2023-11-06 07:49:25,14.98347969,0.0002764,69.9989,278.6519,267.2974,92.7869,0.00022637,2.61e-05,0.0,0 STARLINK-5913,1 55937U 23037Z   23310.32598596  .00002610  00000-0  22637-3 0  9992,2 55937  69.9989 278.6519 0002764 267.2974  92.7869 14.98347969 36005,6950.137,96.106,573.923,570.081,0.0
55937.0,STARLINK-5913,PAYLOAD,2023-11-06 15:50:07,14.98318129,0.0002979,69.9992,277.8107,267.3624,92.7194,-0.00012444,-1.577e-05,0.0,0 STARLINK-5913,1 55937U 23037Z   23310.65981321 -.00001577  00000-0 -12444-3 0  9998,2 55937  69.9992 277.8107 0002979 267.3624  92.7194 14.98318129 36393,6950.23,96.108,574.165,570.024,0.0
55937.0,STARLINK-5913,PAYLOAD,2023-11-06 22:14:41,14.98308802,0.0002547,69.9988,277.1368,265.0366,95.0503,-0.0002197,-2.712e-05,0.0,0 STARLINK-5913,1 55937U 23037Z   23310.92686560 -.00002712  00000-0 -21970-3 0  9991,2 55937  69.9988 277.1368 0002547 265.0366  95.0503 14.98308802 36093,6950.258,96.108,573.894,570.353,0.0
55937.0,STARLINK-5913,PAYLOAD,2023-11-07 04:39:13,14.98310426,0.000264,69.9988,276.4637,263.4525,96.6334,-0.00028183,-3.452e-05,0.0,0 STARLINK-5913,1 55937U 23037Z   23311.19390932 -.00003452  00000-0 -28183-3 0  9991,2 55937  69.9988 276.4637 0002640 263.4525  96.6334 14.98310426 36473,6950.253,96.108,573.953,570.284,0.0
55937.0,STARLINK-5913,PAYLOAD,2023-11-07 07:51:30,14.98309106,0.0002877,69.999,276.1275,264.3506,95.7325,-0.00027986,-3.429e-05,0.0,0 STARLINK-5913,1 55937U 23037Z   23311.32743167 -.00003429  00000-0 -27986-3 0  9992,2 55937  69.9990 276.1275 0002877 264.3506  95.7325 14.98309106 36150,6950.258,96.108,574.122,570.123,0.0
55937.0,STARLINK-5913,PAYLOAD,2023-11-08 03:05:06,14.9832158,0.0002767,69.9993,274.1071,266.6782,93.406,-7.7751e-05,-1.02e-05,0.0,0 STARLINK-5913,1 55937U 23037Z   23312.12854465 -.00001020  00000-0 -77751-4 0  9996,2 55937  69.9993 274.1071 0002767 266.6782  93.4060 14.98321580 36616,6950.219,96.108,574.007,570.161,0.0
55937.0,STARLINK-5913,PAYLOAD,2023-11-08 07:53:29,14.98334777,0.000287,69.999,273.6031,260.1952,99.8883,-5.7639e-05,-7.81e-06,0.0,0 STARLINK-5913,1 55937U 23037Z   23312.32881598 -.00000781  00000-0 -57639-4 0  9991,2 55937  69.9990 273.6031 0002870 260.1952  99.8883 14.98334777 36644,6950.178,96.107,574.038,570.048,0.0
55937.0,STARLINK-5913,PAYLOAD,2023-11-08 22:18:41,14.98325835,0.000299,69.9987,272.0861,261.3519,98.7301,0.00037338,4.364e-05,0.0,0 STARLINK-5913,1 55937U 23037Z   23312.92964859  .00004364  00000-0  37338-3 0  9991,2 55937  69.9987 272.0861 0002990 261.3519  98.7301 14.98325835 36399,6950.206,96.107,574.149,569.993,0.0
55937.0,STARLINK-5913,PAYLOAD,2023-11-09 07:55:28,14.98339529,0.0002599,69.9996,271.0782,245.884,114.2047,0.00047459,5.576e-05,0.0,0 STARLINK-5913,1 55937U 23037Z   23313.33019659  .00005576  00000-0  47459-3 0  9997,2 55937  69.9996 271.0782 0002599 245.8840 114.2047 14.98339529 36799,6950.163,96.106,573.835,570.222,0.0
55937.0,STARLINK-5913,PAYLOAD,2023-11-09 22:20:43,14.9833237,0.0002783,69.9997,269.5647,256.1171,103.9679,-2.2858e-05,-3.66e-06,0.0,0 STARLINK-5913,1 55937U 23037Z   23313.93105388 -.00000366  00000-0 -22858-4 0  9999,2 55937  69.9997 269.5647 0002783 256.1171 103.9679 14.98332370 36545,6950.186,96.107,573.985,570.116,0.0
55937.0,STARLINK-5913,PAYLOAD,2023-11-10 03:09:06,14.98329728,0.000255,69.9997,269.0589,240.2403,119.8502,7.7801e-05,8.35e-06,0.0,0 STARLINK-5913,1 55937U 23037Z   23314.13133093  .00000835  00000-0  77801-4 0  9993,2 55937  69.9997 269.0589 0002550 240.2403 119.8502 14.98329728 36914,6950.194,96.107,573.831,570.286,0.0
55937.0,STARLINK-5913,PAYLOAD,2023-11-10 07:57:31,14.98330719,0.0002637,69.9997,268.5543,247.4256,112.6624,1.95e-05,1.4e-06,0.0,0 STARLINK-5913,1 55937U 23037Z   23314.33161188  .00000140  00000-0  19500-4 0  9992,2 55937  69.9997 268.5543 0002637 247.4256 112.6624 14.98330719 36603,6950.191,96.107,573.888,570.223,0.0
55937.0,STARLINK-5913,PAYLOAD,2023-11-10 14:22:04,14.98327079,0.0001818,70.0016,267.8782,277.0264,83.0688,-0.00011547,-1.47e-05,0.0,0 STARLINK-5913,1 55937U 23037Z   23314.59865961 -.00001470  00000-0 -11547-3 0  9991,2 55937  70.0016 267.8782 0001818 277.0264  83.0688 14.98327079 36980,6950.202,96.107,573.33,570.803,0.0
55937.0,STARLINK-5913,PAYLOAD,2023-11-10 22:22:44,14.98329629,0.0002397,70.0007,267.0358,254.751,105.3384,-0.00015336,-1.922e-05,0.0,0 STARLINK-5913,1 55937U 23037Z   23314.93245435 -.00001922  00000-0 -15336-3 0  9999,2 55937  70.0007 267.0358 0002397 254.7510 105.3384 14.98329629 36692,6950.194,96.107,573.725,570.393,0.0
55937.0,STARLINK-5913,PAYLOAD,2023-11-11 03:11:08,14.98331838,0.000282,69.9996,266.5332,263.2408,96.843,-0.00020466,-2.534e-05,0.0,0 STARLINK-5913,1 55937U 23037Z   23315.13273457 -.00002534  00000-0 -20466-3 0  9997,2 55937  69.9996 266.5332 0002820 263.2408  96.8430 14.98331838 37067,6950.187,96.107,574.012,570.092,0.0
55937.0,STARLINK-5913,PAYLOAD,2023-11-11 14:24:04,14.98341161,0.0002701,69.9997,265.3549,272.9046,87.1804,-0.00022179,-2.739e-05,0.0,0 STARLINK-5913,1 55937U 23037Z   23315.60004769 -.00002739  00000-0 -22179-3 0  9997,2 55937  69.9997 265.3549 0002701 272.9046  87.1804 14.98341161 36795,6950.158,96.106,573.901,570.146,0.0
55937.0,STARLINK-5913,PAYLOAD,2023-11-11 22:24:44,14.9832912,0.0002626,69.9993,264.5132,260.5053,99.5809,1.3089e-05,6.3e-07,0.0,0 STARLINK-5913,1 55937U 23037Z   23315.93384842  .00000063  00000-0  13089-4 0  9993,2 55937  69.9993 264.5132 0002626 260.5053  99.5809 14.98329120 36846,6950.196,96.107,573.886,570.235,0.0
55937.0,STARLINK-5913,PAYLOAD,2023-11-12 06:25:24,14.98332658,0.0002569,69.9994,263.6711,259.7198,100.3671,5.0206e-05,5.06e-06,0.0,0 STARLINK-5913,1 55937U 23037Z   23316.26764530  .00000506  00000-0  50206-4 0  9990,2 55937  69.9994 263.6711 0002569 259.7198 100.3671 14.98332658 36899,6950.185,96.107,573.835,570.264,0.0
55937.0,STARLINK-5913,PAYLOAD,2023-11-12 14:26:05,14.98322176,0.0002434,69.9999,262.8292,266.3001,93.788,0.00017394,1.983e-05,0.0,0 STARLINK-5913,1 55937U 23037Z   23316.60144982  .00001983  00000-0  17394-3 0  9991,2 55937  69.9999 262.8292 0002434 266.3001  93.7880 14.98322176 37282,6950.217,96.108,573.774,570.39,0.0
55937.0,STARLINK-5913,PAYLOAD,2023-11-12 22:26:45,14.98327441,0.0002836,69.9992,261.9876,268.302,91.7814,9.3306e-05,1.02e-05,0.0,0 STARLINK-5913,1 55937U 23037Z   23316.93524697  .00001020  00000-0  93306-4 0  9992,2 55937  69.9992 261.9876 0002836 268.3020  91.7814 14.98327441 36994,6950.201,96.107,574.037,570.095,0.0
